[{"OBJECT_NAME":"STARLINK-3821","OBJECT_ID":"2022-045AC","EPOCH":"2026-03-09T16:21:27.566784","MEAN_MOTION":15.08837718,"ECCENTRICITY":0.00013619,"INCLINATION":53.2184,"RA_OF_ASC_NODE":199.1592,"ARG_OF_PERICENTER":88.9392,"MEAN_ANOMALY":271.1756,"EPHEMERIS_TYPE":0,"CLASSIFICATION_TYPE":"U","NORAD_CAT_ID":52357,"ELEMENT_SET_NO":999,"REV_AT_EPOCH":21578,"BSTAR":5.138464e-6,"MEAN_MOTION_DOT":-2.06e-6,"MEAN_MOTION_DDOT":0},{"OBJECT_NAME":"CZ-4B DEB","OBJECT_ID":"2008-053J","EPOCH":"2026-03-09T11:59:22.469568","MEAN_MOTION":15.1637526,"ECCENTRICITY":0.00601661,"INCLINATION":97.7872,"RA_OF_ASC_NODE":170.5072,"ARG_OF_PERICENTER":304.792,"MEAN_ANOMALY":54.7659,"EPHEMERIS_TYPE":0,"CLASSIFICATION_TYPE":"U","NORAD_CAT_ID":35573,"ELEMENT_SET_NO":999,"REV_AT_EPOCH":91868,"BSTAR":0.0017688276,"MEAN_MOTION_DOT":0.00036031,"MEAN_MOTION_DDOT":0}]
